{"type": "FeatureCollection", "features": [ {"type": "Feature", "properties": {"norad_id": 35446, "name": "COSMOS 2251 DEB", "group": "cosmos-2251-debris", "lat": 62.353483906241614, "lon": 78.2438012362249, "alt_km": 683.2946445066646, "timestamp": "2025-12-26T22:28:06.181692+00:00", "meta": {"OBJECT_NAME": "COSMOS 2251 DEB", "OBJECT_ID": "1993-036AKQ", "EPOCH": "2025-12-24T02:17:06.099072", "MEAN_MOTION": 14.54640342, "ECCENTRICITY": 0.00747088, "INCLINATION": 74.0474, "RA_OF_ASC_NODE": 296.7103, "ARG_OF_PERICENTER": 51.6552, "MEAN_ANOMALY": 309.1293, "EPHEMERIS_TYPE": 0, "CLASSIFICATION_TYPE": "U", "NORAD_CAT_ID": 35446, "ELEMENT_SET_NO": 999, "REV_AT_EPOCH": 88173, "BSTAR": 0.00011899718, "MEAN_MOTION_DOT": 4.98e-06, "MEAN_MOTION_DDOT": 0}, "tle": {"line1": "1 35446U 93036AKQ 25358.09520948  .00000498  00000+0  11900-3 0  9997", "line2": "2 35446  74.0474 296.7103 0074708  51.6552 309.1293 14.54640342881735"}}, "geometry": {"type": "Point", "coordinates": [78.2438012362249, 62.353483906241614]}}, {"type": "Feature", "properties": {"norad_id": 35448, "name": "COSMOS 2251 DEB", "group": "cosmos-2251-debris", "lat": -42.58828085811227, "lon": 47.0551917293086, "alt_km": 714.4687570470405, "timestamp": "2025-12-26T22:28:06.181703+00:00", "meta": {"OBJECT_NAME": "COSMOS 2251 DEB", "OBJECT_ID": "1993-036AKS", "EPOCH": "2025-12-26T14:25:10.468704", "MEAN_MOTION": 14.54377943, "ECCENTRICITY": 0.0012168, "INCLINATION": 73.903, "RA_OF_ASC_NODE": 63.0866, "ARG_OF_PERICENTER": 247.5607, "MEAN_ANOMALY": 112.4267, "EPHEMERIS_TYPE": 0, "CLASSIFICATION_TYPE": "U", "NORAD_CAT_ID": 35448, "ELEMENT_SET_NO": 999, "REV_AT_EPOCH": 87536, "BSTAR": 0.0010063, "MEAN_MOTION_DOT": 4.254e-05, "MEAN_MOTION_DDOT": 0}, "tle": {"line1": "1 35448U 93036AKS 25360.60081561  .00004254  00000+0  10063-2 0  9994", "line2": "2 35448  73.9030  63.0866 0012168 247.5607 112.4267 14.54377943875365"}}, "geometry": {"type": "Point", "coordinates": [47.0551917293086, -42.58828085811227]}}, {"type": "Feature", "properties": {"norad_id": 35451, "name": "COSMOS 2251 DEB", "group": "cosmos-2251-debris", "lat": -20.61202654946745, "lon": -101.8040576871578, "alt_km": 471.464750985896, "timestamp": "2025-12-26T22:28:06.181713+00:00", "meta": {"OBJECT_NAME": "COSMOS 2251 DEB", "OBJECT_ID": "1993-036AKV", "EPOCH": "2025-12-22T16:02:09.713472", "MEAN_MOTION": 15.36538479, "ECCENTRICITY": 0.00416089, "INCLINATION": 73.9322, "RA_OF_ASC_NODE": 81.2046, "ARG_OF_PERICENTER": 326.0524, "MEAN_ANOMALY": 33.8019, "EPHEMERIS_TYPE": 0, "CLASSIFICATION_TYPE": "U", "NORAD_CAT_ID": 35451, "ELEMENT_SET_NO": 999, "REV_AT_EPOCH": 67558, "BSTAR": 0.0014760448, "MEAN_MOTION_DOT": 0.00054537, "MEAN_MOTION_DDOT": 0}, "tle": {"line1": "1 35451U 93036AKV 25356.66816798  .00054537  00000+0  14760-2 0  9994", "line2": "2 35451  73.9322  81.2046 0041608 326.0524  33.8019 15.36538479675584"}}, "geometry": {"type": "Point", "coordinates": [-101.8040576871578, -20.61202654946745]}}, {"type": "Feature", "properties": {"norad_id": 35453, "name": "COSMOS 2251 DEB", "group": "cosmos-2251-debris", "lat": -68.87974219979348, "lon": -137.87982363046976, "alt_km": 803.2446384000359, "timestamp": "2025-12-26T22:28:06.181724+00:00", "meta": {"OBJECT_NAME": "COSMOS 2251 DEB", "OBJECT_ID": "1993-036AKX", "EPOCH": "2025-12-16T19:11:22.117056", "MEAN_MOTION": 14.38003213, "ECCENTRICITY": 0.00669431, "INCLINATION": 74.0096, "RA_OF_ASC_NODE": 12.8823, "ARG_OF_PERICENTER": 145.8531, "MEAN_ANOMALY": 214.6957, "EPHEMERIS_TYPE": 0, "CLASSIFICATION_TYPE": "U", "NORAD_CAT_ID": 35453, "ELEMENT_SET_NO": 999, "REV_AT_EPOCH": 86277, "BSTAR": 0.00051941791, "MEAN_MOTION_DOT": 1.586e-05, "MEAN_MOTION_DDOT": 0}, "tle": {"line1": "1 35453U 93036AKX 25350.79956154  .00001586  00000+0  51942-3 0  9995", "line2": "2 35453  74.0096  12.8823 0066943 145.8531 214.6957 14.38003213862776"}}, "geometry": {"type": "Point", "coordinates": [-137.87982363046976, -68.87974219979348]}}, {"type": "Feature", "properties": {"norad_id": 35455, "name": "COSMOS 2251 DEB", "group": "cosmos-2251-debris", "lat": -25.684534593001025, "lon": -99.76806589223999, "alt_km": 673.9665594680673, "timestamp": "2025-12-26T22:28:06.181735+00:00", "meta": {"OBJECT_NAME": "COSMOS 2251 DEB", "OBJECT_ID": "1993-036AKZ", "EPOCH": "2025-12-26T10:59:42.400032", "MEAN_MOTION": 14.49558109, "ECCENTRICITY": 0.0100048, "INCLINATION": 74.0277, "RA_OF_ASC_NODE": 269.0466, "ARG_OF_PERICENTER": 9.4295, "MEAN_ANOMALY": 350.8711, "EPHEMERIS_TYPE": 0, "CLASSIFICATION_TYPE": "U", "NORAD_CAT_ID": 35455, "ELEMENT_SET_NO": 999, "REV_AT_EPOCH": 86742, "BSTAR": 0.0013639, "MEAN_MOTION_DOT": 5.554e-05, "MEAN_MOTION_DDOT": 0}, "tle": {"line1": "1 35455U 93036AKZ 25360.45812963  .00005554  00000+0  13639-2 0  9999", "line2": "2 35455  74.0277 269.0466 0100048   9.4295 350.8711 14.49558109867424"}}, "geometry": {"type": "Point", "coordinates": [-99.76806589223999, -25.684534593001025]}}, {"type": "Feature", "properties": {"norad_id": 35456, "name": "COSMOS 2251 DEB", "group": "cosmos-2251-debris", "lat": -71.20597610876459, "lon": 32.062329829650565, "alt_km": 623.9695585616109, "timestamp": "2025-12-26T22:28:06.181745+00:00", "meta": {"OBJECT_NAME": "COSMOS 2251 DEB", "OBJECT_ID": "1993-036ALA", "EPOCH": "2025-12-23T00:04:26.032512", "MEAN_MOTION": 14.69618117, "ECCENTRICITY": 0.00667181, "INCLINATION": 73.9512, "RA_OF_ASC_NODE": 97.4858, "ARG_OF_PERICENTER": 305.2899, "MEAN_ANOMALY": 54.2041, "EPHEMERIS_TYPE": 0, "CLASSIFICATION_TYPE": "U", "NORAD_CAT_ID": 35456, "ELEMENT_SET_NO": 999, "REV_AT_EPOCH": 66026, "BSTAR": 0.0018731177, "MEAN_MOTION_DOT": 0.00011509, "MEAN_MOTION_DDOT": 0}, "tle": {"line1": "1 35456U 93036ALA 25357.00307908  .00011509  00000+0  18731-2 0  9990", "line2": "2 35456  73.9512  97.4858 0066718 305.2899  54.2041 14.69618117660267"}}, "geometry": {"type": "Point", "coordinates": [32.062329829650565, -71.20597610876459]}}, {"type": "Feature", "properties": {"norad_id": 35459, "name": "COSMOS 2251 DEB", "group": "cosmos-2251-debris", "lat": 68.78080653519156, "lon": -67.28696547099828, "alt_km": 748.3794475249979, "timestamp": "2025-12-26T22:28:06.181756+00:00", "meta": {"OBJECT_NAME": "COSMOS 2251 DEB", "OBJECT_ID": "1993-036ALD", "EPOCH": "2025-12-21T18:23:18.751200", "MEAN_MOTION": 14.37474606, "ECCENTRICITY": 0.0015969, "INCLINATION": 73.8701, "RA_OF_ASC_NODE": 170.5081, "ARG_OF_PERICENTER": 115.4549, "MEAN_ANOMALY": 244.8258, "EPHEMERIS_TYPE": 0, "CLASSIFICATION_TYPE": "U", "NORAD_CAT_ID": 35459, "ELEMENT_SET_NO": 999, "REV_AT_EPOCH": 58491, "BSTAR": 0.00020108543, "MEAN_MOTION_DOT": 5.75e-06, "MEAN_MOTION_DDOT": 0}, "tle": {"line1": "1 35459U 93036ALD 25355.76618925  .00000575  00000+0  20109-3 0  9992", "line2": "2 35459  73.8701 170.5081 0015969 115.4549 244.8258 14.37474606584917"}}, "geometry": {"type": "Point", "coordinates": [-67.28696547099828, 68.78080653519156]}}, {"type": "Feature", "properties": {"norad_id": 35462, "name": "COSMOS 2251 DEB", "group": "cosmos-2251-debris", "lat": 62.663258531794995, "lon": 29.278007373081582, "alt_km": 846.533258318881, "timestamp": "2025-12-26T22:28:06.181766+00:00", "meta": {"OBJECT_NAME": "COSMOS 2251 DEB", "OBJECT_ID": "1993-036ALG", "EPOCH": "2025-12-24T22:54:22.815936", "MEAN_MOTION": 14.29379641, "ECCENTRICITY": 0.0086649, "INCLINATION": 74.0358, "RA_OF_ASC_NODE": 246.4998, "ARG_OF_PERICENTER": 279.062, "MEAN_ANOMALY": 80.0732, "EPHEMERIS_TYPE": 0, "CLASSIFICATION_TYPE": "U", "NORAD_CAT_ID": 35462, "ELEMENT_SET_NO": 999, "REV_AT_EPOCH": 66555, "BSTAR": 0.0013247, "MEAN_MOTION_DOT": 3.491e-05, "MEAN_MOTION_DDOT": 0}, "tle": {"line1": "1 35462U 93036ALG 25358.95443074  .00003491  00000+0  13247-2 0  9995", "line2": "2 35462  74.0358 246.4998 0086649 279.0620  80.0732 14.29379641665553"}}, "geometry": {"type": "Point", "coordinates": [29.278007373081582, 62.663258531794995]}}, {"type": "Feature", "properties": {"norad_id": 35465, "name": "COSMOS 2251 DEB", "group": "cosmos-2251-debris", "lat": -35.012750947986255, "lon": 2.1483721015130937, "alt_km": 766.3510009953316, "timestamp": "2025-12-26T22:28:06.181777+00:00", "meta": {"OBJECT_NAME": "COSMOS 2251 DEB", "OBJECT_ID": "1993-036ALK", "EPOCH": "2025-12-23T05:21:40.851936", "MEAN_MOTION": 14.44343886, "ECCENTRICITY": 0.00645011, "INCLINATION": 73.9972, "RA_OF_ASC_NODE": 177.4731, "ARG_OF_PERICENTER": 335.4735, "MEAN_ANOMALY": 24.3357, "EPHEMERIS_TYPE": 0, "CLASSIFICATION_TYPE": "U", "NORAD_CAT_ID": 35465, "ELEMENT_SET_NO": 999, "REV_AT_EPOCH": 87393, "BSTAR": 0.00030952177, "MEAN_MOTION_DOT": 1.064e-05, "MEAN_MOTION_DDOT": 0}, "tle": {"line1": "1 35465U 93036ALK 25357.22338949  .00001064  00000+0  30952-3 0  9998", "line2": "2 35465  73.9972 177.4731 0064501 335.4735  24.3357 14.44343886873937"}}, "geometry": {"type": "Point", "coordinates": [2.1483721015130937, -35.012750947986255]}}, {"type": "Feature", "properties": {"norad_id": 35469, "name": "COSMOS 2251 DEB", "group": "cosmos-2251-debris", "lat": -25.404200897136864, "lon": -10.63857434053207, "alt_km": 785.5295521394028, "timestamp": "2025-12-26T22:28:06.181787+00:00", "meta": {"OBJECT_NAME": "COSMOS 2251 DEB", "OBJECT_ID": "1993-036ALP", "EPOCH": "2025-12-25T08:30:10.757088", "MEAN_MOTION": 14.49829741, "ECCENTRICITY": 0.0076333, "INCLINATION": 74.0167, "RA_OF_ASC_NODE": 0.1572, "ARG_OF_PERICENTER": 152.3641, "MEAN_ANOMALY": 208.161, "EPHEMERIS_TYPE": 0, "CLASSIFICATION_TYPE": "U", "NORAD_CAT_ID": 35469, "ELEMENT_SET_NO": 999, "REV_AT_EPOCH": 88294, "BSTAR": 9.3047e-05, "MEAN_MOTION_DOT": 3.43e-06, "MEAN_MOTION_DDOT": 0}, "tle": {"line1": "1 35469U 93036ALP 25359.35429117  .00000343  00000+0  93047-4 0  9990", "line2": "2 35469  74.0167   0.1572 0076333 152.3641 208.1610 14.49829741882941"}}, "geometry": {"type": "Point", "coordinates": [-10.63857434053207, -25.404200897136864]}}]}